[{"OBJECT_NAME":"STARLINK-31867","OBJECT_ID":"2024-120E","EPOCH":"2026-03-09T22:00:01.999584","MEAN_MOTION":15.87732023,"ECCENTRICITY":0.00118357,"INCLINATION":53.1391,"RA_OF_ASC_NODE":302.0052,"ARG_OF_PERICENTER":198.522,"MEAN_ANOMALY":210.6091,"EPHEMERIS_TYPE":0,"CLASSIFICATION_TYPE":"U","NORAD_CAT_ID":60139,"ELEMENT_SET_NO":999,"REV_AT_EPOCH":595,"BSTAR":0.0010848709,"MEAN_MOTION_DOT":0.00308367,"MEAN_MOTION_DDOT":0},{"OBJECT_NAME":"STARLINK-11471 [DTC]","OBJECT_ID":"2024-231H","EPOCH":"2026-02-11T21:34:00.852672","MEAN_MOTION":15.69773068,"ECCENTRICITY":0.000104,"INCLINATION":53.156,"RA_OF_ASC_NODE":228.2022,"ARG_OF_PERICENTER":56.4772,"MEAN_ANOMALY":303.6345,"EPHEMERIS_TYPE":0,"CLASSIFICATION_TYPE":"U","NORAD_CAT_ID":62225,"ELEMENT_SET_NO":999,"REV_AT_EPOCH":6936,"BSTAR":0.0020165,"MEAN_MOTION_DOT":0.00251935,"MEAN_MOTION_DDOT":0}]
